0 POPACS 3
1 39270U 13055F   13283.81424912  .00005329  00000-0  17979-3 0    45
2 39270 080.9961 304.1760 0794247 127.3928 240.2310 13.97283696  1582
0 POPACS 3
1 39270U 13055F   13285.31805870  .00006023  00000-0  20347-3 0    54
2 39270 080.9979 302.6810 0794122 123.2019 244.7932 13.97303860  1796
0 POPACS 3
1 39270U 13055F   13286.46379901  .00005925  00000-0  20009-3 0    68
2 39270 080.9976 301.5454 0794071 120.0115 248.2270 13.97316822  1954
0 POPACS 3
1 39270U 13055F   13287.46631180  .00005282  00000-0  17763-3 0    79
2 39270 080.9973 300.5517 0794332 117.2263 251.2032 13.97324370  2095
0 POPACS 3
1 39270U 13055F   13289.04166737  .00005366  00000-0  18069-3 0    80
2 39270 080.9980 298.9909 0794123 112.8530 255.8574 13.97341415  2319
0 POPACS 3
1 39270U 13055F   13290.04414199  .00006188  00000-0  20844-3 0    98
2 39270 080.9958 297.9970 0794157 110.0706 258.7686 13.97356768  2451
0 POPACS 3
1 39270U 13055F   13291.04660773  .00006189  00000-0  20844-3 0   103
2 39270 080.9958 297.0025 0794107 107.2803 261.6775 13.97369039  2596
0 POPACS 3
1 39270U 13055F   13292.04906073  .00005893  00000-0  19852-3 0   119
2 39270 080.9944 296.0070 0793974 104.5296 264.5228 13.97379487  2736
0 POPACS 3
1 39270U 13055F   13293.05150406  .00005459  00000-0  18369-3 0   123
2 39270 080.9923 295.0107 0793968 101.7281 267.3996 13.97388765  2876
0 POPACS 3
1 39270U 13055F   13294.34034270  .00005238  00000-0  17608-3 0   137
2 39270 080.9929 293.7330 0793951 098.1282 271.0653 13.97401355  3051
0 POPACS 3
1 39270U 13055F   13295.41435815  .00005316  00000-0  17889-3 0   145
2 39270 080.9942 292.6670 0793809 095.1285 274.0873 13.97413091  3207
